[{"OBJECT_NAME":"TEVEL2-5","OBJECT_ID":"2025-052E","EPOCH":"2026-03-09T23:11:54.246048","MEAN_MOTION":15.30817434,"ECCENTRICITY":0.00047002,"INCLINATION":97.4013,"RA_OF_ASC_NODE":325.3677,"ARG_OF_PERICENTER":95.3936,"MEAN_ANOMALY":264.7842,"EPHEMERIS_TYPE":0,"CLASSIFICATION_TYPE":"U","NORAD_CAT_ID":63214,"ELEMENT_SET_NO":999,"REV_AT_EPOCH":5491,"BSTAR":0.00071764727,"MEAN_MOTION_DOT":0.00021339,"MEAN_MOTION_DDOT":0},{"OBJECT_NAME":"STARLINK-35128","OBJECT_ID":"2025-210G","EPOCH":"2026-03-09T23:14:35.134944","MEAN_MOTION":15.30200232,"ECCENTRICITY":0.00010941,"INCLINATION":53.1606,"RA_OF_ASC_NODE":305.7955,"ARG_OF_PERICENTER":85.1696,"MEAN_ANOMALY":274.943,"EPHEMERIS_TYPE":0,"CLASSIFICATION_TYPE":"U","NORAD_CAT_ID":65628,"ELEMENT_SET_NO":999,"REV_AT_EPOCH":2777,"BSTAR":0.0011599933,"MEAN_MOTION_DOT":0.00034155,"MEAN_MOTION_DDOT":0}]
